ONEWEB-0685             
1 54679U 22166AP  24310.09878769  .00000076  00000+0  15315-3 0  9992
2 54679  87.9335   1.3276 0002019 102.4598 257.6761 13.21825689 94066
ONEWEB-0712             
1 54680U 22166AQ  24309.62759119  .00000142  00000+0  33679-3 0  9995
2 54680  87.9109 346.2178 0002484  93.8748 266.2667 13.16600864 94482
ONEWEB-0714             
1 54681U 22166AR  24309.87801168  .00000082  00000+0  16648-3 0  9995
2 54681  87.9338   1.3601 0002018 103.9828 256.1530 13.21827131 93684
ONEWEB-0532             
1 55140U 23004A   24309.99647889  .00000093  00000+0  20657-3 0  9996
2 55140  87.9071 123.2336 0001084  99.9042 260.2212 13.17646939 89994
ONEWEB-0533             
1 55141U 23004B   24309.91543668  .00000109  00000+0  26659-3 0  9995
2 55141  87.8853 107.9959 0001558  94.1769 265.9538 13.12441911 90769
ONEWEB-0541             
1 55142U 23004C   24309.94233337 -.00000214  00000+0 -64021-3 0  9992
2 55142  87.8886 138.4449 0001659  96.4306 263.7011 13.11416725 88711
ONEWEB-0543             
1 55143U 23004D   24309.90734702  .00000181  00000+0  42519-3 0  9990
2 55143  87.9074  92.8060 0001821  90.6029 269.5312 13.18688597 92036
ONEWEB-0544             
1 55144U 23004E   24310.12866374  .00000214  00000+0  50935-3 0  9996
2 55144  87.9074  92.7485 0001540  87.3984 272.7324 13.18687526 92061
